RAMSAT                  
1 48850U 98067SL  21203.87035789  .00009068  00000-0  16618-3 0  9998
2 48850  51.6410 165.9807 0003432 277.0388  83.0211 15.50085685  6001
SOAR                    
1 48851U 98067SM  21204.05324433  .00028443  00000-0  48837-3 0  9993
2 48851  51.6397 164.9518 0002665 277.1541  82.9145 15.50922312  6071
BD-28                   
1 48867U 98067SN  21203.87147238  .00010611  00000-0  19211-3 0  9997
2 48867  51.6413 165.9889 0002548 323.3009  36.7806 15.50228344  4750
MIR-SAT 1               
1 48868U 98067SP  21203.61677195  .00019522  00000-0  34658-3 0  9992
2 48868  51.6409 167.2872 0001768 286.5171  73.5624 15.50212938  4744
